{
    "links": {
        "self": "http://www.neowsapp.com/rest/v1/neo/3869344?api_key=iIulBulltgU6a56xZRHN4H3l9WmuAYTsLGpBGhQ2"
    },
    "id": "3869344",
    "neo_reference_id": "3869344",
    "name": "(2019 ST6)",
    "designation": "2019 ST6",
    "nasa_jpl_url": "http://ssd.jpl.nasa.gov/sbdb.cgi?sstr=3869344",
    "absolute_magnitude_h": 25.0,
    "estimated_diameter": {
        "kilometers": {
            "estimated_diameter_min": 0.02658,
            "estimated_diameter_max": 0.0594346868
        },
        "meters": {
            "estimated_diameter_min": 26.58,
            "estimated_diameter_max": 59.4346868419
        },
        "miles": {
            "estimated_diameter_min": 0.0165160412,
            "estimated_diameter_max": 0.0369309908
        },
        "feet": {
            "estimated_diameter_min": 87.2047272,
            "estimated_diameter_max": 194.9956979785
        }
    },
    "is_potentially_hazardous_asteroid": false,
    "close_approach_data": [
        {
            "close_approach_date": "2019-09-25",
            "close_approach_date_full": "2019-Sep-25 11:10",
            "epoch_date_close_approach": 1569409800000,
            "relative_velocity": {
                "kilometers_per_second": "14.648490389",
                "kilometers_per_hour": "52734.5654004306",
                "miles_per_hour": "32767.2081511731"
            },
            "miss_distance": {
                "astronomical": "0.0504584588",
                "lunar": "19.6283404732",
                "kilometers": "7548477.959962756",
                "miles": "4690406.7072717928"
            },
            "orbiting_body": "Earth"
        }
    ],
    "orbital_data": {
        "orbit_id": "2",
        "orbit_determination_date": "2019-10-03 06:13:51",
        "first_observation_date": "2019-09-27",
        "last_observation_date": "2019-10-03",
        "data_arc_in_days": 6,
        "observations_used": 13,
        "orbit_uncertainty": "9",
        "minimum_orbit_intersection": ".0501524",
        "jupiter_tisserand_invariant": "3.932",
        "epoch_osculation": "2458755.5",
        "eccentricity": ".4169141769321646",
        "semi_major_axis": "1.753787400168488",
        "inclination": "23.92463456268658",
        "ascending_node_longitude": "184.2739392627004",
        "orbital_period": "848.328085368522",
        "perihelion_distance": "1.022608569713242",
        "perihelion_argument": "153.2971652491703",
        "aphelion_distance": "2.484966230623734",
        "perihelion_time": "2458730.062284685449",
        "mean_anomaly": "10.79485363172931",
        "mean_motion": ".4243641183276544",
        "equinox": "J2000",
        "orbit_class": {
            "orbit_class_type": "AMO",
            "orbit_class_description": "Near-Earth asteroid orbits similar to that of 1221 Amor",
            "orbit_class_range": "1.017 AU < q (perihelion) < 1.3 AU"
        }
    },
    "is_sentry_object": false
}